    CK09U89G  2010 12 16.2916  3.930886  1.008551   60.6642  321.0283  130.0966  20120314   9.0  4.0  C/2009 UG89 (Lemmon)                                     MPEC 2012-E18
    CK09W020  2010 05  3.4687  6.913402  0.997172  121.5085  199.5944  164.4838  20120314   7.0  4.0  C/2009 W2 (Boattini)                                     MPC 72851
    CK09Y010  2011 01 28.8770  2.520826  0.993168  127.3986  160.2817  107.3051  20120314   9.0  4.0  C/2009 Y1 (Catalina)                                     MPC 78184
    CK10B010  2011 02  7.1308  2.942029  0.998894  211.5462  277.2086  101.9769  20120314   7.5  4.0  C/2010 B1 (Cardinal)                                     MPEC 2012-D59
    CK10D030  2010 09  3.9229  4.246672  0.999833  304.6370  255.2304   76.4132  20120314   9.0  4.0  C/2010 D3 (WISE)                                         MPC 76025
    CK10D040  2009 03 30.2438  7.146689  0.888727   44.4635  266.8305  105.6598  20120314   6.5  4.0  C/2010 D4 (WISE)                                         MPC 76025
    CK10F030  2010 08  3.7226  5.444714  0.912726   31.1813  157.3940    4.6472  20120314   8.5  4.0  C/2010 F3 (Scotti)                                       MPC 75292
    CK10F87B  2010 11  7.3242  2.843429  0.990089  265.0337   89.9027  107.6272  20120314  10.0  4.0  C/2010 FB87 (WISE-Garradd)                               MPEC 2012-E18
    CK10G020  2011 09  2.0402  1.980562  0.979561  137.4167  246.7828  103.7560  20120314   8.0  4.0  C/2010 G2 (Hill)                                         MPEC 2012-E18
    CK10G030  2010 04 11.1237  4.907518  0.998631   75.2100  313.7459  108.2500  20120314   8.5  4.0  C/2010 G3 (WISE)                                         MPC 75292
    PK10H020  2010 03  7.8208  3.105658  0.192470  129.8170   64.3114   14.2572  20120314   6.0  4.0  P/2010 H2 (Vales)                                        MPC 72851
    PK10H050  2010 04 11.1622  6.023288  0.155515  174.6650   24.8965   14.0882  20120314  13.0  2.0  P/2010 H5 (Scotti)                                       MPC 74637
    CK10J020  2010 06  4.0284  3.387423  0.999816    4.6594  311.8215  125.8564  20120314   9.0  4.0  C/2010 J2 (McNaught)                                     MPC 75712
    PK10J050  2009 11  2.8592  3.747624  0.086816  149.8726   65.6711    7.3564  20120314  10.0  4.0  P/2010 J5 (McNaught)                                     MPC 76025
    PK10J81C  2011 04 26.5584  1.811080  0.777393   12.5814   30.7695   38.6900  20120314   9.0  4.0  P/2010 JC81 (WISE)                                       MPEC 2012-E18
    CK10L030  2010 11 10.1352  9.882410  1.001218  121.7515   38.2693  102.6356  20120314   4.5  4.0  C/2010 L3 (Catalina)                                     MPC 75712
    CK10M010  2012 02  7.840   2.29869   1.00000   265.318    82.150    78.373              9.0  4.0  C/2010 M1 (Gibbs)                                        MPC 70817
    CK10R010  2012 05 18.9664  5.621381  1.003714  114.5004  343.6454  156.9340  20120314   6.0  4.0  C/2010 R1 (LINEAR)                                       MPEC 2012-D59
    PK10R020  2010 06 23.4958  2.619178  0.153737   59.0419  270.6490   21.4174  20120314  13.0  4.0  P/2010 R2 (La Sagra)                                     MPC 77404
    CK10S010  2013 05 20.3050  5.900350  1.000610  118.6101   93.4364  125.3351  20120314   3.5  4.0  C/2010 S1 (LINEAR)                                       MPEC 2012-D59
    PK10T020  2011 07 10.7831  3.752845  0.318421  356.1340   59.5943    8.0279  20120314  11.5  4.0  P/2010 T2 (PANSTARRS)                                    MPC 74248
    PK10T20O  2008 10 23.6149  5.181017  0.081350  256.6501   44.1501    2.5945  20120203   9.0  4.0  P/2010 TO20 (LINEAR-Grauer)                              MPEC 2012-D09
    PK10U010  2010 03 25.8204  4.903886  0.257149   88.9664  281.2495    8.2656  20120314   9.5  4.0  P/2010 U1 (Boattini)                                     MPC 77805
    PK10U020  2010 11  9.4117  2.553738  0.402477   44.2879  357.1526   16.8594  20120314  13.0  4.0  P/2010 U2 (Hill)                                         MPC 74249
    CK10U030  2019 03  2.4518  8.478684  0.998924   87.9069   43.0319   55.4127  20120314   1.0  4.0  C/2010 U3 (Boattini)                                     MPC 77805
    PK10U55H  2011 05 10.3605  2.767967  0.575137  221.6177  235.2647    8.6626  20110429  11.0  4.0  P/2010 UH55 (Spacewatch)                                 MPEC 2012-E18
    PK10V010  2010 10 13.0944  1.576500  0.486346  152.2462    3.7943    9.3797  20120314   8.0  4.0  P/2010 V1 (Ikeya-Murakami)                               MPC 74249
    PK10W00K  2010 10 19.8282  1.766245  0.692144   40.8976   11.4932   11.4771  20120314  14.5  2.0  P/2010 WK (LINEAR)                                       MPC 75009
    CK10X010  2011 09 10.7314  0.482168  1.000009  343.8400  323.1724    1.8397  20120314  10.0  4.0  C/2010 X1 (Elenin)                                       MPC 76025
    CK11A030  2011 12 16.0818  2.344862  0.997696  141.1626  124.8895   26.0760  20120314  10.0  4.0  C/2011 A3 (Gibbs)                                        MPC 78185
    PK11C020  2012 01  9.3488  5.386888  0.269512  160.6974   12.2065   10.9093  20120314   9.0  4.0  P/2011 C2 (Gibbs)                                        MPEC 2012-E18
    CK11F010  2013 01  8.0559  1.818804  0.999997  192.5696   85.1172   56.6104  20120314   5.0  4.0  C/2011 F1 (LINEAR)                                       MPEC 2012-E18
    CK11G010  2011 09 16.4104  2.155316  1.001061  354.5510  152.5898  162.2340  20120314  12.0  4.0  C/2011 G1 (McNaught)                                     MPEC 2012-E18
    CK11J020  2013 12 25.7164  3.448398  1.000057   85.2169  163.9376  122.8257  20120314   6.0  4.0  C/2011 J2 (LINEAR)                                       MPEC 2012-E18
    PK11J15B  2012 01 23.1126  5.016584  0.318785  111.1126  153.7372   19.1418  20120314   9.0  4.0  P/2011 JB15 (Spacewatch-Boattini)                        MPC 78185
    CK11L010  2010 12 18.2839  2.241669  0.796900  294.4457  252.3665   65.5216  20120314  11.0  4.0  C/2011 L1 (McNaught)                                     MPC 76569
    CK11L020  2011 11  1.2827  1.943388  1.001700  257.0351  131.3501  104.2564  20120314  12.5  4.0  C/2011 L2 (McNaught)                                     MPEC 2012-D09
    CK11L030  2011 08 10.5040  1.923914  1.000093   27.7323  307.7582   87.1156  20120314  12.5  4.0  C/2011 L3 (McNaught)                                     MPC 77405
    CK11L040  2013 03 11.0372  0.301815  0.999873  333.6690   65.6475   84.4570  20120314   5.5  4.0  C/2011 L4 (PANSTARRS)                                    MPEC 2012-D59
    CK11M010  2011 09  7.5790  0.895651  1.002430  119.5845  324.7904   70.1797  20120314  12.0  4.0  C/2011 M1 (LINEAR)                                       MPC 75714
    PK11N010  2012 05 31.2187  2.857505  0.545653  331.0699   77.6573   35.6680  20120314  11.5  4.0  P/2011 N1 (ASH)                                          MPC 78185
    CK11N020  2011 10 18.6781  2.563940  0.998228  357.0085  274.0149   33.6811  20120314  11.5  4.0  C/2011 N2 (McNaught)                                     MPC 76569
    CK11O010  2012 08 18.4735  3.890547  0.996815  232.3847   89.8168   76.4985  20120821   7.0  4.0  C/2011 O1 (LINEAR)                                       MPC 77405
    PK11P010  2010 07 18.3135  4.970315  0.345120  344.1989    7.9198    5.8937  20120203   9.0  4.0  P/2011 P1 (McNaught)                                     MPC 78186
    CK11P020  2010 09 18.5709  6.162854  0.365318   76.9020  203.9822    8.9928  20120314   8.5  4.0  C/2011 P2 (PANSTARRS)                                    MPC 76026
    CK11Q020  2012 01 19.7946  1.349615  1.000000   34.6288  287.3685   36.8670            10.0  4.0  C/2011 Q2 (McNaught)                                     MPC 77018
    PK11Q030  2011 08 14.2961  2.367837  0.531408  310.2264   35.3169    6.0523  20110827  13.5  4.0  P/2011 Q3 (McNaught)                                     MPC 77806
    CK11Q040  2011 09 21.0826  1.112214  0.974151    1.8800  252.0863  147.8429  20111006  12.5  4.0  C/2011 Q4 (SWAN)                                         MPEC 2012-E18
    CK11R010  2012 10 19.6195  2.079547  1.000701  308.8619  221.4080  116.1967  20120930   6.5  4.0  C/2011 R1 (McNaught)                                     MPEC 2012-D09
    PK11R030  2012 04  2.9734  3.557905  0.267053  225.1692  190.6211   19.2441  20120314  11.0  4.0  P/2011 R3 (Novichonok-Gerke)                             MPEC 2012-D09
    CK11S020  2011 10 26.3473  1.115109  0.931574  192.1895  288.0698   17.5725  20111115  15.5  4.0  C/2011 S2 (Kowalski)                                     MPC 78186
    PK11U010  2003 12 21.1448  2.548339  0.393294  348.5282  137.1018   15.7079  20031227  14.5  4.0  P/2011 U1 (PANSTARRS)                                    MPC 78186
    PK11U020  2012 05  7.4599  4.837584  0.110855  157.7307  266.6893    9.6309  20120423  10.0  4.0  P/2011 U2 (Bressi)                                       MPC 78186
    CK11U030  2012 06  3.9322  1.071354  1.000004  287.8423  228.3798  116.7802  20120602  14.0  4.0  C/2011 U3 (PANSTARRS)                                    MPC 78186
    PK11UD4A  2011 12  7.2000  2.051426  0.632567   32.3262   40.6365   10.5387  20111225  17.5  4.0  P/2011 UA134 (Spacewatch-PANSTARRS)                      MPEC 2012-D09
    CK11UU5F  2012 07 22.1640  2.138200  1.000628  121.9928  297.4356   93.9604  20120712   9.0  4.0  C/2011 UF305 (LINEAR)                                    MPEC 2012-D59
    PK11V05J  2011 12  8.7041  1.506399  0.557252  315.1274  169.9976    3.9728  20111225  17.5  4.0  P/2011 VJ5 (Lemmon)                                      MPEC 2012-E18
    PK11W010  2012 01 22.6949  3.311889  0.288578  282.4930  161.8932    3.7185  20120203  11.5  4.0  P/2011 W1 (PANSTARRS)                                    MPEC 2012-D59
